*******************************************************************************
Ephemeris / WWW_USER Thu Dec  5 18:37:31 2024 Pasadena, USA      / Horizons    
*******************************************************************************
Target body name: 62412 (2000 SY178)              {source: JPL#44}
Center body name: Earth (399)                     {source: DE441}
Center-site name: Mauna Kea
*******************************************************************************
Start time      : A.D. 2018-Nov-08 03:54:00.0000 UT      
Stop  time      : A.D. 2018-Nov-08 16:17:00.0000 UT      
Step-size       : 1 minutes
*******************************************************************************
Target pole/equ : undefined
Target radii    : 5.187 km                                                     
Center geodetic : 204.5278, 19.8260847, 4.21024   {E-lon(deg),Lat(deg),Alt(km)}
Center cylindric: 204.5278, 6006.35451, 2151.0229 {E-lon(deg),Dxy(km),Dz(km)}
Center pole/equ : ITRF93                          {East-longitude positive}
Center radii    : 6378.137, 6378.137, 6356.752 km {Equator_a, b, pole_c}       
Target primary  : Sun
Vis. interferer : MOON (R_eq= 1737.400) km        {source: DE441}
Rel. light bend : Sun                             {source: DE441}
Rel. lght bnd GM: 1.3271E+11 km^3/s^2                                          
Small-body perts: Yes                             {source: SB441-N16}
Atmos refraction: NO (AIRLESS)
RA format       : HMS
Time format     : CAL 
Calendar mode   : Mixed Julian/Gregorian
RTS-only print  : NO       
EOP file        : eop.241205.p250303                                           
EOP coverage    : DATA-BASED 1962-JAN-20 TO 2024-DEC-05. PREDICTS-> 2025-MAR-02
Units conversion: 1 au= 149597870.700 km, c= 299792.458 km/s, 1 day= 86400.0 s 
Table cut-offs 1: Elevation (-90.0deg=NO ),Airmass (>38.000=NO), Daylight (YES)
Table cut-offs 2: Solar elongation (  0.0,180.0=NO ),Local Hour Angle( 0.0=NO )
Table cut-offs 3: RA/DEC angular rate (     0.0=NO )                           
*******************************************************************************
Initial IAU76/J2000 heliocentric ecliptic osculating elements (au, days, deg.):
  EPOCH=  2458127.5 ! 2018-Jan-09.00 (TDB)         Residual RMS= .2787         
   EC= .08141730682229319  QR= 2.89613208739257    TP= 2458420.6685284483      
   OM= 329.1525583823792   W=  163.0619562799197   IN= 4.73619265468861        
  Equivalent ICRF heliocentric cartesian coordinates (au, au/d):
   X= 8.831945932166756E-01  Y= 2.532168596675914E+00  Z= 1.360803999508301E+00
  VX=-9.867256226021401E-03 VY= 2.254941400948641E-03 VZ= 7.028227572403328E-04
Asteroid physical parameters (km, seconds, rotational period in hours):        
   GM= n.a.                RAD= 5.187              ROTPER= 3.33                
   H= 13.88                G= .150                 B-V= n.a.                   
                           ALBEDO= .065            STYP= n.a.                  
*******************************************************************************
 Date__(UT)__HR:MN     R.A._________(ICRF)_________DEC
******************************************************
$$SOE
 2018-Nov-08 08:00     10 22 56.466938 +11 20 24.68973
 2018-Nov-08 08:01     10 22 56.511586 +11 20 24.41030
 2018-Nov-08 08:02     10 22 56.556232 +11 20 24.13088
 2018-Nov-08 08:03     10 22 56.600875 +11 20 23.85147
 2018-Nov-08 08:04     10 22 56.645516 +11 20 23.57207
 2018-Nov-08 08:05     10 22 56.690154 +11 20 23.29268
 2018-Nov-08 08:06     10 22 56.734790 +11 20 23.01329
 2018-Nov-08 08:07     10 22 56.779424 +11 20 22.73392
 2018-Nov-08 08:08     10 22 56.824055 +11 20 22.45456
 2018-Nov-08 08:09     10 22 56.868683 +11 20 22.17520
 2018-Nov-08 08:10     10 22 56.913309 +11 20 21.89585
 2018-Nov-08 08:11     10 22 56.957933 +11 20 21.61652
 2018-Nov-08 08:12     10 22 57.002554 +11 20 21.33719
 2018-Nov-08 08:13     10 22 57.047172 +11 20 21.05787
 2018-Nov-08 08:14     10 22 57.091788 +11 20 20.77856
 2018-Nov-08 08:15     10 22 57.136401 +11 20 20.49926
 2018-Nov-08 08:16     10 22 57.181011 +11 20 20.21997
 2018-Nov-08 08:17     10 22 57.225619 +11 20 19.94069
 2018-Nov-08 08:18     10 22 57.270225 +11 20 19.66141
 2018-Nov-08 08:19     10 22 57.314827 +11 20 19.38215
 2018-Nov-08 08:20     10 22 57.359428 +11 20 19.10289
 2018-Nov-08 08:21     10 22 57.404025 +11 20 18.82365
 2018-Nov-08 08:22     10 22 57.448620 +11 20 18.54441
 2018-Nov-08 08:23     10 22 57.493212 +11 20 18.26518
 2018-Nov-08 08:24     10 22 57.537801 +11 20 17.98596
 2018-Nov-08 08:25     10 22 57.582388 +11 20 17.70675
 2018-Nov-08 08:26     10 22 57.626972 +11 20 17.42754
 2018-Nov-08 08:27     10 22 57.671553 +11 20 17.14835
 2018-Nov-08 08:28     10 22 57.716132 +11 20 16.86916
 2018-Nov-08 08:29     10 22 57.760708 +11 20 16.58999
 2018-Nov-08 08:30     10 22 57.805281 +11 20 16.31082
 2018-Nov-08 08:31     10 22 57.849851 +11 20 16.03166
 2018-Nov-08 08:32     10 22 57.894418 +11 20 15.75251
 2018-Nov-08 08:33     10 22 57.938983 +11 20 15.47336
 2018-Nov-08 08:34     10 22 57.983545 +11 20 15.19423
 2018-Nov-08 08:35     10 22 58.028104 +11 20 14.91510
 2018-Nov-08 08:36     10 22 58.072660 +11 20 14.63599
 2018-Nov-08 08:37     10 22 58.117214 +11 20 14.35688
 2018-Nov-08 08:38     10 22 58.161764 +11 20 14.07778
 2018-Nov-08 08:39     10 22 58.206312 +11 20 13.79868
 2018-Nov-08 08:40     10 22 58.250857 +11 20 13.51960
 2018-Nov-08 08:41     10 22 58.295399 +11 20 13.24052
 2018-Nov-08 08:42     10 22 58.339938 +11 20 12.96145
 2018-Nov-08 08:43     10 22 58.384474 +11 20 12.68240
 2018-Nov-08 08:44     10 22 58.429008 +11 20 12.40334
 2018-Nov-08 08:45     10 22 58.473538 +11 20 12.12430
 2018-Nov-08 08:46     10 22 58.518066 +11 20 11.84527
 2018-Nov-08 08:47     10 22 58.562590 +11 20 11.56624
 2018-Nov-08 08:48     10 22 58.607112 +11 20 11.28722
 2018-Nov-08 08:49     10 22 58.651630 +11 20 11.00821
 2018-Nov-08 08:50     10 22 58.696146 +11 20 10.72920
 2018-Nov-08 08:51     10 22 58.740658 +11 20 10.45021
 2018-Nov-08 08:52     10 22 58.785168 +11 20 10.17122
 2018-Nov-08 08:53     10 22 58.829675 +11 20 09.89224
 2018-Nov-08 08:54     10 22 58.874178 +11 20 09.61327
 2018-Nov-08 08:55     10 22 58.918679 +11 20 09.33431
 2018-Nov-08 08:56     10 22 58.963177 +11 20 09.05535
 2018-Nov-08 08:57     10 22 59.007671 +11 20 08.77640
 2018-Nov-08 08:58     10 22 59.052163 +11 20 08.49746
 2018-Nov-08 08:59     10 22 59.096651 +11 20 08.21853
 2018-Nov-08 09:00     10 22 59.141136 +11 20 07.93960
 2018-Nov-08 09:01     10 22 59.185619 +11 20 07.66069
 2018-Nov-08 09:02     10 22 59.230098 +11 20 07.38177
 2018-Nov-08 09:03     10 22 59.274574 +11 20 07.10287
 2018-Nov-08 09:04     10 22 59.319047 +11 20 06.82398
 2018-Nov-08 09:05     10 22 59.363517 +11 20 06.54509
 2018-Nov-08 09:06     10 22 59.407983 +11 20 06.26621
 2018-Nov-08 09:07     10 22 59.452447 +11 20 05.98734
 2018-Nov-08 09:08     10 22 59.496907 +11 20 05.70847
 2018-Nov-08 09:09     10 22 59.541364 +11 20 05.42961
 2018-Nov-08 09:10     10 22 59.585819 +11 20 05.15076
 2018-Nov-08 09:11     10 22 59.630269 +11 20 04.87192
 2018-Nov-08 09:12     10 22 59.674717 +11 20 04.59308
 2018-Nov-08 09:13     10 22 59.719162 +11 20 04.31425
 2018-Nov-08 09:14     10 22 59.763603 +11 20 04.03543
 2018-Nov-08 09:15     10 22 59.808041 +11 20 03.75661
 2018-Nov-08 09:16     10 22 59.852476 +11 20 03.47780
 2018-Nov-08 09:17     10 22 59.896908 +11 20 03.19900
 2018-Nov-08 09:18     10 22 59.941336 +11 20 02.92021
 2018-Nov-08 09:19     10 22 59.985761 +11 20 02.64142
 2018-Nov-08 09:20     10 23 00.030183 +11 20 02.36264
 2018-Nov-08 09:21     10 23 00.074602 +11 20 02.08387
 2018-Nov-08 09:22     10 23 00.119017 +11 20 01.80510
 2018-Nov-08 09:23     10 23 00.163429 +11 20 01.52634
 2018-Nov-08 09:24     10 23 00.207838 +11 20 01.24759
 2018-Nov-08 09:25     10 23 00.252243 +11 20 00.96884
 2018-Nov-08 09:26     10 23 00.296645 +11 20 00.69010
 2018-Nov-08 09:27     10 23 00.341044 +11 20 00.41137
 2018-Nov-08 09:28     10 23 00.385440 +11 20 00.13264
 2018-Nov-08 09:29     10 23 00.429832 +11 19 59.85392
 2018-Nov-08 09:30     10 23 00.474221 +11 19 59.57521
 2018-Nov-08 09:31     10 23 00.518606 +11 19 59.29650
 2018-Nov-08 09:32     10 23 00.562988 +11 19 59.01780
 2018-Nov-08 09:33     10 23 00.607367 +11 19 58.73910
 2018-Nov-08 09:34     10 23 00.651743 +11 19 58.46042
 2018-Nov-08 09:35     10 23 00.696115 +11 19 58.18173
 2018-Nov-08 09:36     10 23 00.740483 +11 19 57.90306
 2018-Nov-08 09:37     10 23 00.784848 +11 19 57.62439
 2018-Nov-08 09:38     10 23 00.829210 +11 19 57.34573
 2018-Nov-08 09:39     10 23 00.873569 +11 19 57.06707
 2018-Nov-08 09:40     10 23 00.917924 +11 19 56.78842
 2018-Nov-08 09:41     10 23 00.962275 +11 19 56.50978
 2018-Nov-08 09:42     10 23 01.006623 +11 19 56.23114
 2018-Nov-08 09:43     10 23 01.050968 +11 19 55.95251
 2018-Nov-08 09:44     10 23 01.095309 +11 19 55.67388
 2018-Nov-08 09:45     10 23 01.139647 +11 19 55.39526
 2018-Nov-08 09:46     10 23 01.183981 +11 19 55.11664
 2018-Nov-08 09:47     10 23 01.228312 +11 19 54.83804
 2018-Nov-08 09:48     10 23 01.272639 +11 19 54.55943
 2018-Nov-08 09:49     10 23 01.316963 +11 19 54.28084
 2018-Nov-08 09:50     10 23 01.361283 +11 19 54.00225
 2018-Nov-08 09:51     10 23 01.405600 +11 19 53.72366
 2018-Nov-08 09:52     10 23 01.449914 +11 19 53.44508
 2018-Nov-08 09:53     10 23 01.494223 +11 19 53.16651
 2018-Nov-08 09:54     10 23 01.538530 +11 19 52.88794
 2018-Nov-08 09:55     10 23 01.582833 +11 19 52.60938
 2018-Nov-08 09:56     10 23 01.627132 +11 19 52.33082
 2018-Nov-08 09:57     10 23 01.671427 +11 19 52.05227
 2018-Nov-08 09:58     10 23 01.715720 +11 19 51.77372
 2018-Nov-08 09:59     10 23 01.760008 +11 19 51.49518
 2018-Nov-08 10:00     10 23 01.804293 +11 19 51.21664
 2018-Nov-08 10:01     10 23 01.848575 +11 19 50.93811
 2018-Nov-08 10:02     10 23 01.892853 +11 19 50.65959
